{"type": "FeatureCollection", "features": [ {"type": "Feature", "properties": {"norad_id": 33825, "name": "COSMOS 2251 DEB", "group": "cosmos-2251-debris", "lat": -45.975418426439134, "lon": 7.441987372216425, "alt_km": 622.1675902768911, "timestamp": "2025-12-14T07:33:19.871676+00:00", "meta": {"OBJECT_NAME": "COSMOS 2251 DEB", "OBJECT_ID": "1993-036BS", "EPOCH": "2025-12-13T12:42:11.633184", "MEAN_MOTION": 14.69772761, "ECCENTRICITY": 0.00845831, "INCLINATION": 73.9857, "RA_OF_ASC_NODE": 26.2555, "ARG_OF_PERICENTER": 353.0875, "MEAN_ANOMALY": 124.6043, "EPHEMERIS_TYPE": 0, "CLASSIFICATION_TYPE": "U", "NORAD_CAT_ID": 33825, "ELEMENT_SET_NO": 999, "REV_AT_EPOCH": 88891, "BSTAR": 0.00086795555, "MEAN_MOTION_DOT": 5.441e-05, "MEAN_MOTION_DDOT": 0}, "tle": {"line1": "1 33825U 93036BS  25347.52930131  .00005441  00000+0  86796-3 0  9999", "line2": "2 33825  73.9857  26.2555 0084583 353.0875 124.6043 14.69772761888910"}}, "geometry": {"type": "Point", "coordinates": [7.441987372216425, -45.975418426439134]}}, {"type": "Feature", "properties": {"norad_id": 33826, "name": "COSMOS 2251 DEB", "group": "cosmos-2251-debris", "lat": 71.24084722831432, "lon": 169.64734855671804, "alt_km": 654.5506729956023, "timestamp": "2025-12-14T07:33:19.871687+00:00", "meta": {"OBJECT_NAME": "COSMOS 2251 DEB", "OBJECT_ID": "1993-036BT", "EPOCH": "2025-12-13T15:08:00.408192", "MEAN_MOTION": 14.51727182, "ECCENTRICITY": 0.00830499, "INCLINATION": 74.0652, "RA_OF_ASC_NODE": 48.2011, "ARG_OF_PERICENTER": 92.2715, "MEAN_ANOMALY": 32.9724, "EPHEMERIS_TYPE": 0, "CLASSIFICATION_TYPE": "U", "NORAD_CAT_ID": 33826, "ELEMENT_SET_NO": 999, "REV_AT_EPOCH": 87782, "BSTAR": 0.0011002033, "MEAN_MOTION_DOT": 4.596e-05, "MEAN_MOTION_DDOT": 0}, "tle": {"line1": "1 33826U 93036BT  25347.63056028  .00004596  00000+0  11002-2 0  9993", "line2": "2 33826  74.0652  48.2011 0083049  92.2715  32.9724 14.51727182877821"}}, "geometry": {"type": "Point", "coordinates": [169.64734855671804, 71.24084722831432]}}, {"type": "Feature", "properties": {"norad_id": 33828, "name": "COSMOS 2251 DEB", "group": "cosmos-2251-debris", "lat": -43.25697140162244, "lon": -140.4522573505527, "alt_km": 729.6546736480277, "timestamp": "2025-12-14T07:33:19.871698+00:00", "meta": {"OBJECT_NAME": "COSMOS 2251 DEB", "OBJECT_ID": "1993-036BV", "EPOCH": "2025-12-13T17:06:54.580608", "MEAN_MOTION": 14.44337743, "ECCENTRICITY": 0.00294626, "INCLINATION": 74.0467, "RA_OF_ASC_NODE": 236.2801, "ARG_OF_PERICENTER": 309.0794, "MEAN_ANOMALY": 118.2609, "EPHEMERIS_TYPE": 0, "CLASSIFICATION_TYPE": "U", "NORAD_CAT_ID": 33828, "ELEMENT_SET_NO": 999, "REV_AT_EPOCH": 88327, "BSTAR": 0.00062982133, "MEAN_MOTION_DOT": 2.153e-05, "MEAN_MOTION_DDOT": 0}, "tle": {"line1": "1 33828U 93036BV  25347.71313172  .00002153  00000+0  62982-3 0  9991", "line2": "2 33828  74.0467 236.2801 0029462 309.0794 118.2609 14.44337743883276"}}, "geometry": {"type": "Point", "coordinates": [-140.4522573505527, -43.25697140162244]}}, {"type": "Feature", "properties": {"norad_id": 33830, "name": "COSMOS 2251 DEB", "group": "cosmos-2251-debris", "lat": 13.638023822600013, "lon": -128.7377923876265, "alt_km": 613.3018979256522, "timestamp": "2025-12-14T07:33:19.871709+00:00", "meta": {"OBJECT_NAME": "COSMOS 2251 DEB", "OBJECT_ID": "1993-036BX", "EPOCH": "2025-12-13T15:20:07.699200", "MEAN_MOTION": 14.76915533, "ECCENTRICITY": 0.00424069, "INCLINATION": 74.0323, "RA_OF_ASC_NODE": 228.6031, "ARG_OF_PERICENTER": 348.4855, "MEAN_ANOMALY": 33.7422, "EPHEMERIS_TYPE": 0, "CLASSIFICATION_TYPE": "U", "NORAD_CAT_ID": 33830, "ELEMENT_SET_NO": 999, "REV_AT_EPOCH": 89485, "BSTAR": 0.0010411529, "MEAN_MOTION_DOT": 7.407e-05, "MEAN_MOTION_DDOT": 0}, "tle": {"line1": "1 33830U 93036BX  25347.63897800  .00007407  00000+0  10412-2 0  9997", "line2": "2 33830  74.0323 228.6031 0042406 348.4855  33.7422 14.76915533894852"}}, "geometry": {"type": "Point", "coordinates": [-128.7377923876265, 13.638023822600013]}}, {"type": "Feature", "properties": {"norad_id": 33832, "name": "COSMOS 2251 DEB", "group": "cosmos-2251-debris", "lat": -26.46058139247089, "lon": -161.2111004550051, "alt_km": 697.7839201065544, "timestamp": "2025-12-14T07:33:19.871720+00:00", "meta": {"OBJECT_NAME": "COSMOS 2251 DEB", "OBJECT_ID": "1993-036BZ", "EPOCH": "2025-12-13T01:00:32.813280", "MEAN_MOTION": 14.60654035, "ECCENTRICITY": 0.00248212, "INCLINATION": 74.0541, "RA_OF_ASC_NODE": 209.3977, "ARG_OF_PERICENTER": 240.4066, "MEAN_ANOMALY": 241.8525, "EPHEMERIS_TYPE": 0, "CLASSIFICATION_TYPE": "U", "NORAD_CAT_ID": 33832, "ELEMENT_SET_NO": 999, "REV_AT_EPOCH": 88429, "BSTAR": 0.0018971978, "MEAN_MOTION_DOT": 9.258e-05, "MEAN_MOTION_DDOT": 0}, "tle": {"line1": "1 33832U 93036BZ  25347.04204645  .00009258  00000+0  18972-2 0  9998", "line2": "2 33832  74.0541 209.3977 0024821 240.4066 241.8525 14.60654035884290"}}, "geometry": {"type": "Point", "coordinates": [-161.2111004550051, -26.46058139247089]}}, {"type": "Feature", "properties": {"norad_id": 33835, "name": "COSMOS 2251 DEB", "group": "cosmos-2251-debris", "lat": 2.9423294229695416, "lon": -82.74498507819887, "alt_km": 653.2711382412144, "timestamp": "2025-12-14T07:33:19.871731+00:00", "meta": {"OBJECT_NAME": "COSMOS 2251 DEB", "OBJECT_ID": "1993-036CC", "EPOCH": "2025-12-13T14:26:00.088224", "MEAN_MOTION": 14.62264472, "ECCENTRICITY": 0.00546024, "INCLINATION": 74.0569, "RA_OF_ASC_NODE": 99.4609, "ARG_OF_PERICENTER": 152.7563, "MEAN_ANOMALY": 229.766, "EPHEMERIS_TYPE": 0, "CLASSIFICATION_TYPE": "U", "NORAD_CAT_ID": 33835, "ELEMENT_SET_NO": 999, "REV_AT_EPOCH": 88802, "BSTAR": 0.0012899362, "MEAN_MOTION_DOT": 6.622e-05, "MEAN_MOTION_DDOT": 0}, "tle": {"line1": "1 33835U 93036CC  25347.60138991  .00006622  00000+0  12899-2 0  9997", "line2": "2 33835  74.0569  99.4609 0054602 152.7563 229.7660 14.62264472888024"}}, "geometry": {"type": "Point", "coordinates": [-82.74498507819887, 2.9423294229695416]}}, {"type": "Feature", "properties": {"norad_id": 33836, "name": "COSMOS 2251 DEB", "group": "cosmos-2251-debris", "lat": -57.53018322303109, "lon": -130.96505815132454, "alt_km": 652.6908805950452, "timestamp": "2025-12-14T07:33:19.871742+00:00", "meta": {"OBJECT_NAME": "COSMOS 2251 DEB", "OBJECT_ID": "1993-036CD", "EPOCH": "2025-12-12T18:48:33.739776", "MEAN_MOTION": 14.79623029, "ECCENTRICITY": 0.00225741, "INCLINATION": 73.997, "RA_OF_ASC_NODE": 258.8638, "ARG_OF_PERICENTER": 112.0113, "MEAN_ANOMALY": 314.4402, "EPHEMERIS_TYPE": 0, "CLASSIFICATION_TYPE": "U", "NORAD_CAT_ID": 33836, "ELEMENT_SET_NO": 999, "REV_AT_EPOCH": 64089, "BSTAR": 0.0019144744, "MEAN_MOTION_DOT": 0.00014414, "MEAN_MOTION_DDOT": 0}, "tle": {"line1": "1 33836U 93036CD  25346.78372384  .00014414  00000+0  19145-2 0  9991", "line2": "2 33836  73.9970 258.8638 0022574 112.0113 314.4402 14.79623029640897"}}, "geometry": {"type": "Point", "coordinates": [-130.96505815132454, -57.53018322303109]}}, {"type": "Feature", "properties": {"norad_id": 33837, "name": "COSMOS 2251 DEB", "group": "cosmos-2251-debris", "lat": 61.69097702480175, "lon": -159.52259358891442, "alt_km": 740.979617260039, "timestamp": "2025-12-14T07:33:19.871752+00:00", "meta": {"OBJECT_NAME": "COSMOS 2251 DEB", "OBJECT_ID": "1993-036CE", "EPOCH": "2025-12-13T14:28:50.642688", "MEAN_MOTION": 14.50704096, "ECCENTRICITY": 0.00358753, "INCLINATION": 74.0132, "RA_OF_ASC_NODE": 53.9724, "ARG_OF_PERICENTER": 275.5491, "MEAN_ANOMALY": 84.1578, "EPHEMERIS_TYPE": 0, "CLASSIFICATION_TYPE": "U", "NORAD_CAT_ID": 33837, "ELEMENT_SET_NO": 999, "REV_AT_EPOCH": 88808, "BSTAR": 0.00037833486, "MEAN_MOTION_DOT": 1.471e-05, "MEAN_MOTION_DDOT": 0}, "tle": {"line1": "1 33837U 93036CE  25347.60336392  .00001471  00000+0  37833-3 0  9997", "line2": "2 33837  74.0132  53.9724 0035875 275.5491  84.1578 14.50704096888085"}}, "geometry": {"type": "Point", "coordinates": [-159.52259358891442, 61.69097702480175]}}, {"type": "Feature", "properties": {"norad_id": 33838, "name": "COSMOS 2251 DEB", "group": "cosmos-2251-debris", "lat": -25.691731223734877, "lon": 138.9487049674271, "alt_km": 727.9195882905306, "timestamp": "2025-12-14T07:33:19.871763+00:00", "meta": {"OBJECT_NAME": "COSMOS 2251 DEB", "OBJECT_ID": "1993-036CF", "EPOCH": "2025-12-13T16:48:45.171648", "MEAN_MOTION": 14.48367691, "ECCENTRICITY": 0.00274591, "INCLINATION": 74.0363, "RA_OF_ASC_NODE": 148.0141, "ARG_OF_PERICENTER": 269.7685, "MEAN_ANOMALY": 101.5644, "EPHEMERIS_TYPE": 0, "CLASSIFICATION_TYPE": "U", "NORAD_CAT_ID": 33838, "ELEMENT_SET_NO": 999, "REV_AT_EPOCH": 88583, "BSTAR": 0.00058915603, "MEAN_MOTION_DOT": 2.188e-05, "MEAN_MOTION_DDOT": 0}, "tle": {"line1": "1 33838U 93036CF  25347.70052282  .00002188  00000+0  58916-3 0  9993", "line2": "2 33838  74.0363 148.0141 0027459 269.7685 101.5644 14.48367691885831"}}, "geometry": {"type": "Point", "coordinates": [138.9487049674271, -25.691731223734877]}}, {"type": "Feature", "properties": {"norad_id": 33839, "name": "COSMOS 2251 DEB", "group": "cosmos-2251-debris", "lat": -8.735610188195867, "lon": -159.0663976369282, "alt_km": 633.769726245182, "timestamp": "2025-12-14T07:33:19.871774+00:00", "meta": {"OBJECT_NAME": "COSMOS 2251 DEB", "OBJECT_ID": "1993-036CG", "EPOCH": "2025-12-13T13:40:35.003712", "MEAN_MOTION": 14.64423958, "ECCENTRICITY": 0.00851261, "INCLINATION": 74.039, "RA_OF_ASC_NODE": 204.885, "ARG_OF_PERICENTER": 316.7713, "MEAN_ANOMALY": 67.9125, "EPHEMERIS_TYPE": 0, "CLASSIFICATION_TYPE": "U", "NORAD_CAT_ID": 33839, "ELEMENT_SET_NO": 999, "REV_AT_EPOCH": 89592, "BSTAR": 0.00032725469, "MEAN_MOTION_DOT": 1.792e-05, "MEAN_MOTION_DDOT": 0}, "tle": {"line1": "1 33839U 93036CG  25347.56984958  .00001792  00000+0  32725-3 0  9992", "line2": "2 33839  74.0390 204.8850 0085126 316.7713  67.9125 14.64423958895927"}}, "geometry": {"type": "Point", "coordinates": [-159.0663976369282, -8.735610188195867]}}]}